{"fetched_at":"2026-07-11T09:24:20.416Z","source":"https://celestrak.org/NORAD/elements/gp.php?NAME=GLOBAL&FORMAT=JSON","constellation":"blacksky-gen2","records":[{"OBJECT_NAME":"GLOBAL-2","OBJECT_ID":"2018-099BG","EPOCH":"2026-07-10T02:07:49.564704","CLASSIFICATION_TYPE":"U","MEAN_MOTION":15.08809515,"ECCENTRICITY":0.00076788,"INCLINATION":97.3551,"RA_OF_ASC_NODE":226.6497,"ARG_OF_PERICENTER":81.0751,"MEAN_ANOMALY":279.1347,"EPHEMERIS_TYPE":0,"NORAD_CAT_ID":43812,"ELEMENT_SET_NO":999,"REV_AT_EPOCH":41536,"BSTAR":0.00011743974,"MEAN_MOTION_DOT":0.00001788,"MEAN_MOTION_DDOT":0},{"OBJECT_NAME":"GLOBAL-4","OBJECT_ID":"2019-054E","EPOCH":"2026-07-11T04:43:34.473792","CLASSIFICATION_TYPE":"U","MEAN_MOTION":15.66767591,"ECCENTRICITY":0.0004783,"INCLINATION":45.0052,"RA_OF_ASC_NODE":97.6239,"ARG_OF_PERICENTER":170.0214,"MEAN_ANOMALY":190.078,"EPHEMERIS_TYPE":0,"NORAD_CAT_ID":44499,"ELEMENT_SET_NO":999,"REV_AT_EPOCH":38412,"BSTAR":0.00039058,"MEAN_MOTION_DOT":0.00042039,"MEAN_MOTION_DDOT":0},{"OBJECT_NAME":"GLOBAL-9","OBJECT_ID":"2021-023G","EPOCH":"2026-07-10T22:49:12.745344","CLASSIFICATION_TYPE":"U","MEAN_MOTION":15.47492996,"ECCENTRICITY":0.0002902,"INCLINATION":44.9804,"RA_OF_ASC_NODE":116.8685,"ARG_OF_PERICENTER":138.8106,"MEAN_ANOMALY":221.3003,"EPHEMERIS_TYPE":0,"NORAD_CAT_ID":47971,"ELEMENT_SET_NO":999,"REV_AT_EPOCH":29862,"BSTAR":0.00027715,"MEAN_MOTION_DOT":0.00014217,"MEAN_MOTION_DDOT":0},{"OBJECT_NAME":"GLOBAL-14","OBJECT_ID":"2021-106A","EPOCH":"2026-07-10T07:55:20.008416","CLASSIFICATION_TYPE":"U","MEAN_MOTION":15.51660276,"ECCENTRICITY":0.00168882,"INCLINATION":42.0022,"RA_OF_ASC_NODE":153.4283,"ARG_OF_PERICENTER":191.3088,"MEAN_ANOMALY":168.7379,"EPHEMERIS_TYPE":0,"NORAD_CAT_ID":49469,"ELEMENT_SET_NO":999,"REV_AT_EPOCH":26172,"BSTAR":0.00031886774,"MEAN_MOTION_DOT":0.00019295,"MEAN_MOTION_DDOT":0},{"OBJECT_NAME":"GLOBAL-12","OBJECT_ID":"2021-115BA","EPOCH":"2026-07-10T14:34:24.220128","CLASSIFICATION_TYPE":"U","MEAN_MOTION":15.55134134,"ECCENTRICITY":0.0002676,"INCLINATION":53.1957,"RA_OF_ASC_NODE":291.807,"ARG_OF_PERICENTER":67.4277,"MEAN_ANOMALY":292.7018,"EPHEMERIS_TYPE":0,"NORAD_CAT_ID":49772,"ELEMENT_SET_NO":999,"REV_AT_EPOCH":25954,"BSTAR":0.00040417,"MEAN_MOTION_DOT":0.00027333,"MEAN_MOTION_DDOT":0},{"OBJECT_NAME":"GLOBAL-13","OBJECT_ID":"2021-115BB","EPOCH":"2026-07-10T18:32:35.130912","CLASSIFICATION_TYPE":"U","MEAN_MOTION":15.46995782,"ECCENTRICITY":0.0001107,"INCLINATION":53.1978,"RA_OF_ASC_NODE":302.3911,"ARG_OF_PERICENTER":154.7411,"MEAN_ANOMALY":205.3652,"EPHEMERIS_TYPE":0,"NORAD_CAT_ID":49773,"ELEMENT_SET_NO":999,"REV_AT_EPOCH":25941,"BSTAR":0.00029226,"MEAN_MOTION_DOT":0.00014585,"MEAN_MOTION_DDOT":0},{"OBJECT_NAME":"GLOBAL-17","OBJECT_ID":"2021-120A","EPOCH":"2026-07-11T04:57:32.933088","CLASSIFICATION_TYPE":"U","MEAN_MOTION":15.53575886,"ECCENTRICITY":0.0013463,"INCLINATION":41.9946,"RA_OF_ASC_NODE":266.0304,"ARG_OF_PERICENTER":60.1034,"MEAN_ANOMALY":300.1147,"EPHEMERIS_TYPE":0,"NORAD_CAT_ID":49949,"ELEMENT_SET_NO":999,"REV_AT_EPOCH":25863,"BSTAR":0.00028972,"MEAN_MOTION_DOT":0.00018732,"MEAN_MOTION_DDOT":0},{"OBJECT_NAME":"GLOBAL-16","OBJECT_ID":"2021-120B","EPOCH":"2026-07-10T16:10:27.818112","CLASSIFICATION_TYPE":"U","MEAN_MOTION":15.51339852,"ECCENTRICITY":0.0011813,"INCLINATION":41.9952,"RA_OF_ASC_NODE":273.3944,"ARG_OF_PERICENTER":44.6913,"MEAN_ANOMALY":315.4881,"EPHEMERIS_TYPE":0,"NORAD_CAT_ID":49950,"ELEMENT_SET_NO":999,"REV_AT_EPOCH":25849,"BSTAR":0.00031687,"MEAN_MOTION_DOT":0.00018892,"MEAN_MOTION_DDOT":0},{"OBJECT_NAME":"GLOBAL-18","OBJECT_ID":"2022-034B","EPOCH":"2026-07-10T06:12:31.501152","CLASSIFICATION_TYPE":"U","MEAN_MOTION":15.47079635,"ECCENTRICITY":0.00043087,"INCLINATION":52.98,"RA_OF_ASC_NODE":146.3065,"ARG_OF_PERICENTER":11.3992,"MEAN_ANOMALY":348.711,"EPHEMERIS_TYPE":0,"NORAD_CAT_ID":52196,"ELEMENT_SET_NO":999,"REV_AT_EPOCH":24053,"BSTAR":0.00030601834,"MEAN_MOTION_DOT":0.00015344,"MEAN_MOTION_DDOT":0},{"OBJECT_NAME":"GLOBAL-19","OBJECT_ID":"2023-041B","EPOCH":"2026-07-09T22:51:50.896224","CLASSIFICATION_TYPE":"U","MEAN_MOTION":15.38589343,"ECCENTRICITY":0.00087792,"INCLINATION":42.0016,"RA_OF_ASC_NODE":69.0757,"ARG_OF_PERICENTER":183.2971,"MEAN_ANOMALY":176.7812,"EPHEMERIS_TYPE":0,"NORAD_CAT_ID":55982,"ELEMENT_SET_NO":999,"REV_AT_EPOCH":18543,"BSTAR":0.00025562462,"MEAN_MOTION_DOT":0.00009716,"MEAN_MOTION_DDOT":0},{"OBJECT_NAME":"GLOBAL-5","OBJECT_ID":"2023-041C","EPOCH":"2026-07-11T00:34:32.882016","CLASSIFICATION_TYPE":"U","MEAN_MOTION":15.38622864,"ECCENTRICITY":0.0007823,"INCLINATION":42.0016,"RA_OF_ASC_NODE":62.3503,"ARG_OF_PERICENTER":186.5978,"MEAN_ANOMALY":173.4759,"EPHEMERIS_TYPE":0,"NORAD_CAT_ID":55983,"ELEMENT_SET_NO":999,"REV_AT_EPOCH":18560,"BSTAR":0.00022309,"MEAN_MOTION_DOT":0.00008451,"MEAN_MOTION_DDOT":0}]}
