GLOBAL-2                
1 43812U 18099BG  26191.08876811  .00001788  00000+0  11744-3 0  9996
2 43812  97.3551 226.6497 0007678  81.0751 279.1347 15.08809515415360
GLOBAL-4                
1 44499U 19054E   26192.19692678  .00042039  00000+0  39058-3 0  9992
2 44499  45.0052  97.6239 0004783 170.0214 190.0780 15.66767591384127
GLOBAL-9                
1 47971U 21023G   26191.95084196  .00014217  00000+0  27715-3 0  9996
2 47971  44.9804 116.8685 0002902 138.8106 221.3003 15.47492996298628
GLOBAL-14               
1 49469U 21106A   26191.33009269  .00019295  00000+0  31887-3 0  9998
2 49469  42.0022 153.4283 0016888 191.3088 168.7379 15.51660276261729
GLOBAL-12               
1 49772U 21115BA  26191.60722477  .00027333  00000+0  40417-3 0  9999
2 49772  53.1957 291.8070 0002676  67.4277 292.7018 15.55134134259548
GLOBAL-13               
1 49773U 21115BB  26191.77262883  .00014585  00000+0  29226-3 0  9998
2 49773  53.1978 302.3911 0001107 154.7411 205.3652 15.46995782259416
GLOBAL-17               
1 49949U 21120A   26192.20663117  .00018732  00000+0  28972-3 0  9998
2 49949  41.9946 266.0304 0013463  60.1034 300.1147 15.53575886258635
GLOBAL-16               
1 49950U 21120B   26191.67393308  .00018892  00000+0  31687-3 0  9996
2 49950  41.9952 273.3944 0011813  44.6913 315.4881 15.51339852258492
GLOBAL-18               
1 52196U 22034B   26191.25869793  .00015344  00000+0  30602-3 0  9992
2 52196  52.9800 146.3065 0004308  11.3992 348.7110 15.47079635240539
GLOBAL-19               
1 55982U 23041B   26190.95267241  .00009716  00000+0  25562-3 0  9998
2 55982  42.0016  69.0757 0008779 183.2971 176.7812 15.38589343185432
GLOBAL-5                
1 55983U 23041C   26192.02399169  .00008451  00000+0  22309-3 0  9995
2 55983  42.0016  62.3503 0007823 186.5978 173.4759 15.38622864185609
